[{"OBJECT_NAME":"ISS OBJECT XT","OBJECT_ID":"1998-067XT","EPOCH":"2026-04-20T13:33:28.557504","MEAN_MOTION":15.89658474,"ECCENTRICITY":0.00117109,"INCLINATION":51.6192,"RA_OF_ASC_NODE":209.186,"ARG_OF_PERICENTER":337.8574,"MEAN_ANOMALY":22.1924,"EPHEMERIS_TYPE":0,"CLASSIFICATION_TYPE":"U","NORAD_CAT_ID":66907,"ELEMENT_SET_NO":999,"REV_AT_EPOCH":2179,"BSTAR":0.001137909,"MEAN_MOTION_DOT":0.00342383,"MEAN_MOTION_DDOT":5.4211995e-5},{"OBJECT_NAME":"ISS OBJECT XU","OBJECT_ID":"1998-067XU","EPOCH":"2026-04-19T23:44:59.883936","MEAN_MOTION":15.89766386,"ECCENTRICITY":0.00114166,"INCLINATION":51.6192,"RA_OF_ASC_NODE":212.0904,"ARG_OF_PERICENTER":333.9645,"MEAN_ANOMALY":26.0785,"EPHEMERIS_TYPE":0,"CLASSIFICATION_TYPE":"U","NORAD_CAT_ID":66908,"ELEMENT_SET_NO":999,"REV_AT_EPOCH":2170,"BSTAR":0.0012071787,"MEAN_MOTION_DOT":0.0036531,"MEAN_MOTION_DDOT":6.041013e-5},{"OBJECT_NAME":"SILVERSAT","OBJECT_ID":"1998-067XV","EPOCH":"2026-04-20T07:14:09.580128","MEAN_MOTION":16.10656402,"ECCENTRICITY":0.0013786,"INCLINATION":51.6101,"RA_OF_ASC_NODE":207.3485,"ARG_OF_PERICENTER":338.7955,"MEAN_ANOMALY":21.2486,"EPHEMERIS_TYPE":0,"CLASSIFICATION_TYPE":"U","NORAD_CAT_ID":66909,"ELEMENT_SET_NO":999,"REV_AT_EPOCH":2179,"BSTAR":0.0013903,"MEAN_MOTION_DOT":0.01400443,"MEAN_MOTION_DDOT":0.0013415},{"OBJECT_NAME":"ISS OBJECT XW","OBJECT_ID":"1998-067XW","EPOCH":"2026-04-20T13:06:38.350080","MEAN_MOTION":15.85521877,"ECCENTRICITY":0.00108272,"INCLINATION":51.6185,"RA_OF_ASC_NODE":209.8088,"ARG_OF_PERICENTER":332.6022,"MEAN_ANOMALY":27.4409,"EPHEMERIS_TYPE":0,"CLASSIFICATION_TYPE":"U","NORAD_CAT_ID":66910,"ELEMENT_SET_NO":999,"REV_AT_EPOCH":2178,"BSTAR":0.0010336203,"MEAN_MOTION_DOT":0.00262547,"MEAN_MOTION_DDOT":0},{"OBJECT_NAME":"ISS OBJECT XY","OBJECT_ID":"1998-067XY","EPOCH":"2026-04-20T13:48:35.349696","MEAN_MOTION":15.72889119,"ECCENTRICITY":0.00073385,"INCLINATION":51.6234,"RA_OF_ASC_NODE":213.8212,"ARG_OF_PERICENTER":328.9976,"MEAN_ANOMALY":31.0588,"EPHEMERIS_TYPE":0,"CLASSIFICATION_TYPE":"U","NORAD_CAT_ID":66912,"ELEMENT_SET_NO":999,"REV_AT_EPOCH":2172,"BSTAR":0.00081723952,"MEAN_MOTION_DOT":0.00114465,"MEAN_MOTION_DDOT":0},{"OBJECT_NAME":"KNACKSAT-2","OBJECT_ID":"1998-067XZ","EPOCH":"2026-04-20T14:27:24.713568","MEAN_MOTION":15.55215986,"ECCENTRICITY":0.00119126,"INCLINATION":51.6305,"RA_OF_ASC_NODE":223.0372,"ARG_OF_PERICENTER":344.3877,"MEAN_ANOMALY":15.6745,"EPHEMERIS_TYPE":0,"CLASSIFICATION_TYPE":"U","NORAD_CAT_ID":67683,"ELEMENT_SET_NO":999,"REV_AT_EPOCH":1130,"BSTAR":0.00048335,"MEAN_MOTION_DOT":0.00033041,"MEAN_MOTION_DDOT":0},{"OBJECT_NAME":"CORAL","OBJECT_ID":"1998-067YA","EPOCH":"2026-04-20T14:00:37.709856","MEAN_MOTION":15.61673259,"ECCENTRICITY":0.00156839,"INCLINATION":51.628,"RA_OF_ASC_NODE":221.4077,"ARG_OF_PERICENTER":336.7595,"MEAN_ANOMALY":23.2688,"EPHEMERIS_TYPE":0,"CLASSIFICATION_TYPE":"U","NORAD_CAT_ID":67684,"ELEMENT_SET_NO":999,"REV_AT_EPOCH":1132,"BSTAR":0.00094894378,"MEAN_MOTION_DOT":0.00084244,"MEAN_MOTION_DDOT":0},{"OBJECT_NAME":"GXIBA-1","OBJECT_ID":"1998-067YB","EPOCH":"2026-04-20T13:58:52.058208","MEAN_MOTION":15.55990878,"ECCENTRICITY":0.00138285,"INCLINATION":51.6293,"RA_OF_ASC_NODE":222.9046,"ARG_OF_PERICENTER":341.2513,"MEAN_ANOMALY":18.7968,"EPHEMERIS_TYPE":0,"CLASSIFICATION_TYPE":"U","NORAD_CAT_ID":67685,"ELEMENT_SET_NO":999,"REV_AT_EPOCH":1130,"BSTAR":0.00053237589,"MEAN_MOTION_DOT":0.00037573,"MEAN_MOTION_DDOT":0},{"OBJECT_NAME":"UITMSAT-2","OBJECT_ID":"1998-067YC","EPOCH":"2026-04-20T00:52:31.361376","MEAN_MOTION":15.57425635,"ECCENTRICITY":0.00107524,"INCLINATION":51.63,"RA_OF_ASC_NODE":225.2605,"ARG_OF_PERICENTER":319.1163,"MEAN_ANOMALY":40.9021,"EPHEMERIS_TYPE":0,"CLASSIFICATION_TYPE":"U","NORAD_CAT_ID":67686,"ELEMENT_SET_NO":999,"REV_AT_EPOCH":1122,"BSTAR":0.00069974257,"MEAN_MOTION_DOT":0.00052292,"MEAN_MOTION_DDOT":0},{"OBJECT_NAME":"HMU-SAT2","OBJECT_ID":"1998-067YD","EPOCH":"2026-04-20T00:19:33.394080","MEAN_MOTION":15.55623505,"ECCENTRICITY":0.00099883,"INCLINATION":51.6309,"RA_OF_ASC_NODE":225.8604,"ARG_OF_PERICENTER":320.5824,"MEAN_ANOMALY":39.444,"EPHEMERIS_TYPE":0,"CLASSIFICATION_TYPE":"U","NORAD_CAT_ID":67687,"ELEMENT_SET_NO":999,"REV_AT_EPOCH":1113,"BSTAR":0.00055185911,"MEAN_MOTION_DOT":0.00038363,"MEAN_MOTION_DDOT":0},{"OBJECT_NAME":"LEOPARD","OBJECT_ID":"1998-067YE","EPOCH":"2026-04-19T14:26:37.044960","MEAN_MOTION":15.56718917,"ECCENTRICITY":0.0010319,"INCLINATION":51.6313,"RA_OF_ASC_NODE":227.609,"ARG_OF_PERICENTER":317.4453,"MEAN_ANOMALY":42.5738,"EPHEMERIS_TYPE":0,"CLASSIFICATION_TYPE":"U","NORAD_CAT_ID":67688,"ELEMENT_SET_NO":999,"REV_AT_EPOCH":1107,"BSTAR":0.00073319,"MEAN_MOTION_DOT":0.00053374,"MEAN_MOTION_DDOT":0},{"OBJECT_NAME":"CREW DRAGON 12","OBJECT_ID":"2026-031A","EPOCH":"2026-04-20T18:43:46.346592","MEAN_MOTION":15.48857372,"ECCENTRICITY":0.00067015,"INCLINATION":51.6325,"RA_OF_ASC_NODE":224.2241,"ARG_OF_PERICENTER":330.9223,"MEAN_ANOMALY":29.1391,"EPHEMERIS_TYPE":0,"CLASSIFICATION_TYPE":"U","NORAD_CAT_ID":67796,"ELEMENT_SET_NO":999,"REV_AT_EPOCH":56294,"BSTAR":0.00018579997,"MEAN_MOTION_DOT":9.753e-5,"MEAN_MOTION_DDOT":0},{"OBJECT_NAME":"PROGRESS-MS 33","OBJECT_ID":"2026-058A","EPOCH":"2026-04-20T18:43:46.346592","MEAN_MOTION":15.48857372,"ECCENTRICITY":0.00067015,"INCLINATION":51.6325,"RA_OF_ASC_NODE":224.2241,"ARG_OF_PERICENTER":330.9223,"MEAN_ANOMALY":29.1391,"EPHEMERIS_TYPE":0,"CLASSIFICATION_TYPE":"U","NORAD_CAT_ID":68319,"ELEMENT_SET_NO":999,"REV_AT_EPOCH":316,"BSTAR":0.00018579997,"MEAN_MOTION_DOT":9.753e-5,"MEAN_MOTION_DDOT":0},{"OBJECT_NAME":"CYGNUS NG-24","OBJECT_ID":"2026-079A","EPOCH":"2026-04-20T18:43:46.346592","MEAN_MOTION":15.48857372,"ECCENTRICITY":0.00067015,"INCLINATION":51.6325,"RA_OF_ASC_NODE":224.2241,"ARG_OF_PERICENTER":330.9223,"MEAN_ANOMALY":29.1391,"EPHEMERIS_TYPE":0,"CLASSIFICATION_TYPE":"U","NORAD_CAT_ID":68689,"ELEMENT_SET_NO":999,"REV_AT_EPOCH":142,"BSTAR":0.00018579997,"MEAN_MOTION_DOT":9.753e-5,"MEAN_MOTION_DDOT":0}]
