ISS OBJECT XT           
1 66907U 98067XT  26110.56491386  .00342383  54212-4  11379-2 0  9994
2 66907  51.6192 209.1860 0011710 337.8574  22.1924 15.89658474 21793
ISS OBJECT XU           
1 66908U 98067XU  26109.98958199  .00365310  60410-4  12072-2 0  9992
2 66908  51.6192 212.0904 0011416 333.9645  26.0785 15.89766386 21706
SILVERSAT               
1 66909U 98067XV  26110.30149977  .01400443  13415-2  13903-2 0  9990
2 66909  51.6101 207.3485 0013786 338.7955  21.2486 16.10656402 21793
ISS OBJECT XW           
1 66910U 98067XW  26110.54627720  .00262547  00000+0  10336-2 0  9995
2 66910  51.6185 209.8088 0010827 332.6022  27.4409 15.85521877 21784
ISS OBJECT XY           
1 66912U 98067XY  26110.57540914  .00114465  00000+0  81724-3 0  9994
2 66912  51.6234 213.8212 0007338 328.9976  31.0588 15.72889119 21729
KNACKSAT-2              
1 67683U 98067XZ  26110.60236937  .00033041  00000+0  48335-3 0  9992
2 67683  51.6305 223.0372 0011912 344.3877  15.6745 15.55215986 11301
CORAL                   
1 67684U 98067YA  26110.58376979  .00084244  00000+0  94894-3 0  9993
2 67684  51.6280 221.4077 0015683 336.7595  23.2688 15.61673259 11320
GXIBA-1                 
1 67685U 98067YB  26110.58254697  .00037573  00000+0  53238-3 0  9996
2 67685  51.6293 222.9046 0013828 341.2513  18.7968 15.55990878 11307
UITMSAT-2               
1 67686U 98067YC  26110.03647409  .00052292  00000+0  69974-3 0  9993
2 67686  51.6300 225.2605 0010752 319.1163  40.9021 15.57425635 11226
HMU-SAT2                
1 67687U 98067YD  26110.01358095  .00038363  00000+0  55186-3 0  9995
2 67687  51.6309 225.8604 0009988 320.5824  39.4440 15.55623505 11132
LEOPARD                 
1 67688U 98067YE  26109.60181765  .00053374  00000+0  73319-3 0  9994
2 67688  51.6313 227.6090 0010319 317.4453  42.5738 15.56718917 11071
CREW DRAGON 12          
1 67796U 26031A   26110.78039753  .00009753  00000+0  18580-3 0  9997
2 67796  51.6325 224.2241 0006701 330.9223  29.1391 15.48857372562943
PROGRESS-MS 33          
1 68319U 26058A   26110.78039753  .00009753  00000+0  18580-3 0  9998
2 68319  51.6325 224.2241 0006701 330.9223  29.1391 15.48857372  3169
CYGNUS NG-24            
1 68689U 26079A   26110.78039753  .00009753  00000+0  18580-3 0  9991
2 68689  51.6325 224.2241 0006701 330.9223  29.1391 15.48857372  1426
